EUTELSAT 7A             
1 28187U 04008A   25265.62240925  .00000100  00000+0  00000+0 0  9997
2 28187   5.1465  75.1902 0000893 131.9868 239.4255  1.00273883 78679
EUTELSAT 174A           
1 28924U 05052A   25265.82720354  .00000007  00000+0  00000+0 0  9993
2 28924   3.5374  79.8372 0006123 104.7159 289.2264  1.00275122 49651
EUTELSAT HOTBIRD 13B    
1 29270U 06032A   25265.82159538  .00000151  00000+0  00000+0 0  9997
2 29270   0.9659  85.1704 0004055  89.8565 155.7560  1.00271934 44623
EUTELSAT HOTBIRD 13C    
1 33459U 08065A   25265.79028337 -.00000104  00000+0  00000+0 0  9996
2 33459   2.2581  82.3556 0004793 122.9570  68.5951  1.00272156 44660
EUTELSAT 36B            
1 36101U 09065A   25265.78276149  .00000106  00000+0  00000+0 0  9990
2 36101   0.0643   8.5766 0005779 178.7102 146.8959  1.00274474 58028
EUTELSAT KA-SAT 9A      
1 37258U 10069A   25265.22352409  .00000054  00000+0  00000+0 0  9995
2 37258   0.0557 327.4729 0002865 180.5862 302.7678  1.00270608 41326
EUTELSAT 7 WEST A       
1 37816U 11051A   25265.64858271 -.00000066  00000+0  00000+0 0  9995
2 37816   0.0769  26.2836 0005967 160.8676  40.7764  1.00272612 51204
EUTELSAT 16A            
1 37836U 11057A   25265.79591672  .00000099  00000+0  00000+0 0  9993
2 37836   0.0727  21.9412 0005403 159.0708 123.4318  1.00271596  4643
